OBJECT_NAME,OBJECT_ID,EPOCH,MEAN_MOTION,ECCENTRICITY,INCLINATION,RA_OF_ASC_NODE,ARG_OF_PERICENTER,MEAN_ANOMALY,EPHEMERIS_TYPE,CLASSIFICATION_TYPE,NORAD_CAT_ID,ELEMENT_SET_NO,REV_AT_EPOCH,BSTAR,MEAN_MOTION_DOT,MEAN_MOTION_DDOT
QIANFAN-170,2026-124F,2026-06-28T22:45:16.302240,14.19185233,.00038104,88.9984,0.7002,111.4441,248.7156,0,U,69387,999,348,.38136113E-4,.94E-6,0
QIANFAN-171,2026-124G,2026-06-28T22:30:29.909088,14.20069338,.00034828,88.9984,0.6987,149.8381,210.3010,0,U,69388,999,348,.38757436E-4,.97E-6,0
QIANFAN-172,2026-124H,2026-06-28T22:37:15.163104,14.19640089,.00035761,88.9984,0.6994,132.0645,228.0850,0,U,69389,999,348,.42066145E-4,.103E-5,0
QIANFAN-173,2026-124J,2026-06-28T22:23:21.356448,14.20511439,.00037583,88.9984,0.6980,123.9786,236.1762,0,U,69390,999,348,.42126778E-4,.105E-5,0
QIANFAN-174,2026-124K,2026-06-28T22:14:37.236768,14.20880106,.00040216,88.9984,0.6970,128.9725,231.1825,0,U,69391,999,348,.44849338E-4,.111E-5,0
QIANFAN-175,2026-124L,2026-06-28T22:08:39.391296,14.21341537,.0004702,88.9984,0.6964,141.0993,219.0537,0,U,69392,999,348,.46511001E-4,.116E-5,0
QIANFAN-176,2026-124M,2026-06-28T22:00:25.660224,14.21842859,.00036572,88.9984,0.6955,144.7815,215.3618,0,U,69393,999,348,.46198183E-4,.116E-5,0
QIANFAN-177,2026-124N,2026-06-28T21:47:17.897856,14.22732238,.00046219,88.9984,0.6941,122.4389,237.7251,0,U,69394,999,348,.43609798E-4,.112E-5,0
QIANFAN-178,2026-124P,2026-06-28T21:53:36.913920,14.22275884,.00039793,88.9984,0.6947,131.6168,228.5364,0,U,69395,999,348,.4597874E-4,.117E-5,0
QIANFAN-179,2026-124Q,2026-06-28T23:22:11.348544,14.23098947,.00039807,88.9983,0.6853,127.9131,232.2421,0,U,69396,999,349,.46395853E-4,.119E-5,0
QIANFAN-180,2026-124R,2026-06-28T23:15:27.064800,14.23620668,.00043195,88.9984,0.6847,136.8899,223.2632,0,U,69397,999,349,.48671778E-4,.125E-5,0
QIANFAN-181,2026-124S,2026-06-28T21:49:24.663072,14.16650739,.00029958,88.9984,0.7130,104.9052,255.2468,0,U,69398,999,347,.37506334E-4,.89E-6,0
QIANFAN-182,2026-124T,2026-06-28T22:53:03.267456,14.18740189,.00033773,88.9984,0.7011,123.7527,236.3985,0,U,69399,999,348,.45123046E-4,.108E-5,0
QIANFAN-183,2026-125A,2026-06-28T22:12:36.595584,14.16466976,.00155031,88.9954,279.1211,138.1328,222.1049,0,U,69401,999,336,.17799684E-3,.369E-5,0
QIANFAN-184,2026-125B,2026-06-28T21:59:59.309088,14.16887032,.00163727,88.9955,279.1201,132.5529,227.7044,0,U,69402,999,336,.1758555E-3,.367E-5,0
QIANFAN-185,2026-125C,2026-06-28T22:08:43.789920,14.16091838,.00172075,88.9956,279.1209,133.0434,227.2199,0,U,69403,999,336,.18237208E-3,.375E-5,0
QIANFAN-186,2026-125D,2026-06-28T21:47:08.652192,14.17437880,.0015664,88.9956,279.1188,133.8947,226.3538,0,U,69404,999,336,.1734825E-3,.366E-5,0
QIANFAN-187,2026-125E,2026-06-28T21:34:02.870112,14.18348605,.00161675,88.9955,279.1173,134.9744,225.2759,0,U,69405,999,336,.17273458E-3,.371E-5,0
QIANFAN-188,2026-125F,2026-06-28T21:17:46.001472,14.19440947,.00161485,88.9955,279.1154,138.4026,221.8396,0,U,69406,999,336,.17921942E-3,.392E-5,0
QIANFAN-189,2026-125G,2026-06-28T21:24:48.946752,14.18759818,.00153906,88.9955,279.1163,135.8964,224.3456,0,U,69407,999,336,.16839684E-3,.364E-5,0
QIANFAN-190,2026-125H,2026-06-28T21:17:51.442080,14.19222916,.00161742,88.9956,279.1157,137.4716,222.7730,0,U,69408,999,336,.17066676E-3,.372E-5,0
QIANFAN-191,2026-125J,2026-06-28T22:44:42.316800,14.20094355,.00155928,88.9955,279.1059,136.1434,224.0997,0,U,69409,999,337,.17642564E-3,.391E-5,0
QIANFAN-192,2026-125K,2026-06-28T22:37:15.804192,14.20520362,.00164616,88.9956,279.1053,136.4833,223.7660,0,U,69410,999,337,.17549012E-3,.392E-5,0
QIANFAN-193,2026-125L,2026-06-28T22:28:07.359456,14.20962955,.00163412,88.9955,279.1043,136.8647,223.3827,0,U,69411,999,337,.17622478E-3,.396E-5,0
QIANFAN-194,2026-125M,2026-06-28T22:21:26.140320,14.21404673,.00156333,88.9955,279.1035,140.3823,219.8514,0,U,69412,999,336,.17281865E-3,.392E-5,0
QIANFAN-195,2026-125N,2026-06-28T22:15:13.276800,14.21802077,.00168277,88.9955,279.1029,139.0909,221.1548,0,U,69413,999,337,.175053E-3,.4E-5,0
QIANFAN-196,2026-125P,2026-06-28T22:07:48.866304,14.22297168,.00169354,88.9956,279.1022,139.5031,220.7424,0,U,69414,999,337,.1702384E-3,.393E-5,0
QIANFAN-197,2026-125Q,2026-06-28T22:01:58.876320,14.22741627,.00152073,88.9955,279.1015,136.6424,223.5967,0,U,69415,999,336,.17109777E-3,.398E-5,0
QIANFAN-198,2026-125R,2026-06-28T22:09:28.236672,14.22068315,.0015519,88.9955,279.1023,136.0959,224.1468,0,U,69416,999,337,.17138753E-3,.394E-5,0
