QIANFAN-170             
1 69387U 26124F   26179.94810535  .00000094  00000+0  38136-4 0  9995
2 69387  88.9984   0.7002 0003810 111.4441 248.7156 14.19185233  3483
QIANFAN-171             
1 69388U 26124G   26179.93784617  .00000097  00000+0  38757-4 0  9998
2 69388  88.9984   0.6987 0003482 149.8381 210.3010 14.20069338  3481
QIANFAN-172             
1 69389U 26124H   26179.94253661  .00000103  00000+0  42066-4 0  9996
2 69389  88.9984   0.6994 0003576 132.0645 228.0850 14.19640089  3485
QIANFAN-173             
1 69390U 26124J   26179.93288607  .00000105  00000+0  42127-4 0  9995
2 69390  88.9984   0.6980 0003758 123.9786 236.1762 14.20511439  3489
QIANFAN-174             
1 69391U 26124K   26179.92681987  .00000111  00000+0  44849-4 0  9993
2 69391  88.9984   0.6970 0004021 128.9725 231.1825 14.20880106  3486
QIANFAN-175             
1 69392U 26124L   26179.92267814  .00000116  00000+0  46511-4 0  9996
2 69392  88.9984   0.6964 0004702 141.0993 219.0537 14.21341537  3485
QIANFAN-176             
1 69393U 26124M   26179.91696366  .00000116  00000+0  46198-4 0  9995
2 69393  88.9984   0.6955 0003657 144.7815 215.3618 14.21842859  3489
QIANFAN-177             
1 69394U 26124N   26179.90784604  .00000112  00000+0  43610-4 0  9990
2 69394  88.9984   0.6941 0004621 122.4389 237.7251 14.22732238  3487
QIANFAN-178             
1 69395U 26124P   26179.91223280  .00000117  00000+0  45979-4 0  9995
2 69395  88.9984   0.6947 0003979 131.6168 228.5364 14.22275884  3488
QIANFAN-179             
1 69396U 26124Q   26179.97374246  .00000119  00000+0  46396-4 0  9997
2 69396  88.9983   0.6853 0003980 127.9131 232.2421 14.23098947  3495
QIANFAN-180             
1 69397U 26124R   26179.96906325  .00000125  00000+0  48672-4 0  9992
2 69397  88.9984   0.6847 0004319 136.8899 223.2632 14.23620668  3492
QIANFAN-181             
1 69398U 26124S   26179.90931323  .00000089  00000+0  37506-4 0  9996
2 69398  88.9984   0.7130 0002995 104.9052 255.2468 14.16650739  3478
QIANFAN-182             
1 69399U 26124T   26179.95351004  .00000108  00000+0  45123-4 0  9990
2 69399  88.9984   0.7011 0003377 123.7527 236.3985 14.18740189  3484
QIANFAN-183             
1 69401U 26125A   26179.92542356  .00000369  00000+0  17800-3 0  9993
2 69401  88.9954 279.1211 0015503 138.1328 222.1049 14.16466976  3360
QIANFAN-184             
1 69402U 26125B   26179.91665867  .00000367  00000+0  17586-3 0  9995
2 69402  88.9955 279.1201 0016372 132.5529 227.7044 14.16887032  3363
QIANFAN-185             
1 69403U 26125C   26179.92272905  .00000375  00000+0  18237-3 0  9997
2 69403  88.9956 279.1209 0017207 133.0434 227.2199 14.16091838  3369
QIANFAN-186             
1 69404U 26125D   26179.90773903  .00000366  00000+0  17348-3 0  9992
2 69404  88.9956 279.1188 0015664 133.8947 226.3538 14.17437880  3367
QIANFAN-187             
1 69405U 26125E   26179.89864433  .00000371  00000+0  17273-3 0  9993
2 69405  88.9955 279.1173 0016167 134.9744 225.2759 14.18348605  3367
QIANFAN-188             
1 69406U 26125F   26179.88733798  .00000392  00000+0  17922-3 0  9996
2 69406  88.9955 279.1154 0016148 138.4026 221.8396 14.19440947  3360
QIANFAN-189             
1 69407U 26125G   26179.89223318  .00000364  00000+0  16840-3 0  9997
2 69407  88.9955 279.1163 0015390 135.8964 224.3456 14.18759818  3365
QIANFAN-190             
1 69408U 26125H   26179.88740095  .00000372  00000+0  17067-3 0  9994
2 69408  88.9956 279.1157 0016174 137.4716 222.7730 14.19222916  3366
QIANFAN-191             
1 69409U 26125J   26179.94771200  .00000391  00000+0  17643-3 0  9995
2 69409  88.9955 279.1059 0015592 136.1434 224.0997 14.20094355  3370
QIANFAN-192             
1 69410U 26125K   26179.94254403  .00000392  00000+0  17549-3 0  9994
2 69410  88.9956 279.1053 0016461 136.4833 223.7660 14.20520362  3374
QIANFAN-193             
1 69411U 26125L   26179.93619629  .00000396  00000+0  17622-3 0  9995
2 69411  88.9955 279.1043 0016341 136.8647 223.3827 14.20962955  3376
QIANFAN-194             
1 69412U 26125M   26179.93155255  .00000392  00000+0  17282-3 0  9994
2 69412  88.9955 279.1035 0015633 140.3823 219.8514 14.21404673  3368
QIANFAN-195             
1 69413U 26125N   26179.92723700  .00000400  00000+0  17505-3 0  9998
2 69413  88.9955 279.1029 0016827 139.0909 221.1548 14.21802077  3372
QIANFAN-196             
1 69414U 26125P   26179.92209336  .00000393  00000+0  17024-3 0  9990
2 69414  88.9956 279.1022 0016935 139.5031 220.7424 14.22297168  3376
QIANFAN-197             
1 69415U 26125Q   26179.91804255  .00000398  00000+0  17110-3 0  9992
2 69415  88.9955 279.1015 0015207 136.6424 223.5967 14.22741627  3369
QIANFAN-198             
1 69416U 26125R   26179.92324348  .00000394  00000+0  17139-3 0  9991
2 69416  88.9955 279.1023 0015519 136.0959 224.1468 14.22068315  3372
